[
   {
      "name": "STARLINK-1659",
      "line1": "1 46534U 20070C   21092.95976963 -.00000770  00000-0 -32799-4 0  9999",
      "line2": "2 46534  53.0586 344.8877 0002251  67.7981 292.3246 15.06403089 27946",
      "drg": -3.2799,
      "inc": 53.0586,
      "ran": 344.8877,
      "ecc": 0.0002251,
      "aop": 67.7981,
      "man": 292.3246,
      "mmo": 15.06403089,
      "sma": 6925.33909
   },
   {
      "name": "STARLINK-1663",
      "line1": "1 46535U 20070D   21092.88236640  .00001470  00000-0  11758-3 0  9990",
      "line2": "2 46535  53.0576 345.2378 0002207  83.7102 276.4139 15.06397928 27927",
      "drg": 11.758,
      "inc": 53.0576,
      "ran": 345.2378,
      "ecc": 0.0002207,
      "aop": 83.7102,
      "man": 276.4139,
      "mmo": 15.06397928,
      "sma": 6925.35491
   },
   {
      "name": "STARLINK-1668",
      "line1": "1 46536U 20070E   21092.84549501 -.00003485  00000-0 -21494-3 0  9998",
      "line2": "2 46536  53.0557 345.4153 0005242  80.2134 279.9447 15.06405954 27928",
      "drg": -21.494,
      "inc": 53.0557,
      "ran": 345.4153,
      "ecc": 0.0005242,
      "aop": 80.2134,
      "man": 279.9447,
      "mmo": 15.06405954,
      "sma": 6925.33031
   },
   {
      "name": "STARLINK-1672",
      "line1": "1 46537U 20070F   21092.84181374  .00001119  00000-0  94047-4 0  9994",
      "line2": "2 46537  53.0580 345.4059 0002389  79.6951 280.4308 15.06397795 27924",
      "drg": 9.4047,
      "inc": 53.058,
      "ran": 345.4059,
      "ecc": 0.0002389,
      "aop": 79.6951,
      "man": 280.4308,
      "mmo": 15.06397795,
      "sma": 6925.35532
   },
   {
      "name": "STARLINK-1678",
      "line1": "1 46538U 20070G   21092.95240476  .00000334  00000-0  41335-4 0  9996",
      "line2": "2 46538  53.0590 344.9189 0002527  72.9324 287.1942 15.06393999 27939",
      "drg": 4.1335,
      "inc": 53.059,
      "ran": 344.9189,
      "ecc": 0.0002527,
      "aop": 72.9324,
      "man": 287.1942,
      "mmo": 15.06393999,
      "sma": 6925.36695
   },
   {
      "name": "STARLINK-1684",
      "line1": "1 46539U 20070H   21092.87868541  .00001518  00000-0  12087-3 0  9993",
      "line2": "2 46539  53.0648 345.2102 0007166  35.1675 324.9786 15.06397412 27937",
      "drg": 12.087,
      "inc": 53.0648,
      "ran": 345.2102,
      "ecc": 0.0007166,
      "aop": 35.1675,
      "man": 324.9786,
      "mmo": 15.06397412,
      "sma": 6925.35649
   },
   {
      "name": "STARLINK-1685",
      "line1": "1 46540U 20070J   21092.91876501 -.00000637  00000-0 -23790-4 0  9992",
      "line2": "2 46540  53.0582 330.0755 0003499 161.5940 198.5176 15.06394358 28144",
      "drg": -2.379,
      "inc": 53.0582,
      "ran": 330.0755,
      "ecc": 0.0003499,
      "aop": 161.594,
      "man": 198.5176,
      "mmo": 15.06394358,
      "sma": 6925.36585
   },
   {
      "name": "STARLINK-1687",
      "line1": "1 46541U 20070K   21092.93213069  .00000910  00000-0  79983-4 0  9996",
      "line2": "2 46541  53.0577 325.0171 0001772  80.0627 280.0562 15.06393275 28215",
      "drg": 7.9983,
      "inc": 53.0577,
      "ran": 325.0171,
      "ecc": 0.0001772,
      "aop": 80.0627,
      "man": 280.0562,
      "mmo": 15.06393275,
      "sma": 6925.36917
   },
   {
      "name": "STARLINK-1692",
      "line1": "1 46542U 20070L   21092.86761982  .00001011  00000-0  86785-4 0  9992",
      "line2": "2 46542  53.0591 345.2983 0002230  77.7807 282.3432 15.06398899 27925",
      "drg": 8.6785,
      "inc": 53.0591,
      "ran": 345.2983,
      "ecc": 0.000223,
      "aop": 77.7807,
      "man": 282.3432,
      "mmo": 15.06398899,
      "sma": 6925.35193
   },
   {
      "name": "STARLINK-1693",
      "line1": "1 46543U 20070M   21092.85287404  .00001336  00000-0  10858-3 0  9991",
      "line2": "2 46543  53.0613 345.3628 0002241  85.0795 275.0449 15.06394908 27922",
      "drg": 10.858,
      "inc": 53.0613,
      "ran": 345.3628,
      "ecc": 0.0002241,
      "aop": 85.0795,
      "man": 275.0449,
      "mmo": 15.06394908,
      "sma": 6925.36417
   },
   {
      "name": "STARLINK-1694",
      "line1": "1 46544U 20070N   21092.91508853  .00001015  00000-0  87090-4 0  9990",
      "line2": "2 46544  53.0349 330.1870 0001907  80.4838 279.6366 15.06386872 28149",
      "drg": 8.709,
      "inc": 53.0349,
      "ran": 330.187,
      "ecc": 0.0001907,
      "aop": 80.4838,
      "man": 279.6366,
      "mmo": 15.06386872,
      "sma": 6925.38879
   },
   {
      "name": "STARLINK-1696",
      "line1": "1 46545U 20070P   21092.95609376  .00000093  00000-0  25141-4 0  9991",
      "line2": "2 46545  53.0599 344.9033 0001719  64.5633 295.5534 15.06408007 27933",
      "drg": 2.5141,
      "inc": 53.0599,
      "ran": 344.9033,
      "ecc": 0.0001719,
      "aop": 64.5633,
      "man": 295.5534,
      "mmo": 15.06408007,
      "sma": 6925.32402
   },
   {
      "name": "STARLINK-1697",
      "line1": "1 46546U 20070Q   21092.87499862 -.00000588  00000-0 -20573-4 0  9995",
      "line2": "2 46546  53.0598 345.2660 0002338  77.7631 282.3620 15.06399752 27920",
      "drg": -2.0573,
      "inc": 53.0598,
      "ran": 345.266,
      "ecc": 0.0002338,
      "aop": 77.7631,
      "man": 282.362,
      "mmo": 15.06399752,
      "sma": 6925.34932
   },
   {
      "name": "STARLINK-1698",
      "line1": "1 46547U 20070R   21092.83813664  .00001004  00000-0  86323-4 0  9999",
      "line2": "2 46547  53.0590 345.4235 0002001  78.8507 281.2707 15.06395622 27920",
      "drg": 8.6323,
      "inc": 53.059,
      "ran": 345.4235,
      "ecc": 0.0002001,
      "aop": 78.8507,
      "man": 281.2707,
      "mmo": 15.06395622,
      "sma": 6925.36198
   },
   {
      "name": "STARLINK-1699",
      "line1": "1 46548U 20070S   21092.84918937 -.00000851  00000-0 -38220-4 0  9994",
      "line2": "2 46548  53.0592 345.3737 0002191  79.6841 280.4395 15.06399922 27920",
      "drg": -3.822,
      "inc": 53.0592,
      "ran": 345.3737,
      "ecc": 0.0002191,
      "aop": 79.6841,
      "man": 280.4395,
      "mmo": 15.06399922,
      "sma": 6925.3488
   },
   {
      "name": "STARLINK-1700",
      "line1": "1 46549U 20070T   21092.87773672  .00001571  00000-0  12438-3 0  9993",
      "line2": "2 46549  53.0605 345.2543 0002232  83.1608 276.9635 15.06399180 27920",
      "drg": 12.438,
      "inc": 53.0605,
      "ran": 345.2543,
      "ecc": 0.0002232,
      "aop": 83.1608,
      "man": 276.9635,
      "mmo": 15.0639918,
      "sma": 6925.35107
   },
   {
      "name": "STARLINK-1701",
      "line1": "1 46550U 20070U   21092.86393721 -.00000428  00000-0 -97807-5 0  9994",
      "line2": "2 46550  53.0599 345.3135 0002487  77.8400 282.2868 15.06400563 27920",
      "drg": -0.97807,
      "inc": 53.0599,
      "ran": 345.3135,
      "ecc": 0.0002487,
      "aop": 77.84,
      "man": 282.2868,
      "mmo": 15.06400563,
      "sma": 6925.34683
   },
   {
      "name": "STARLINK-1649",
      "line1": "1 46552U 20070W   21092.82295145 -.00002201  00000-0 -12896-3 0  9997",
      "line2": "2 46552  53.0584 330.4990 0001723  69.7700 290.3474 15.06382374 28131",
      "drg": -12.896,
      "inc": 53.0584,
      "ran": 330.499,
      "ecc": 0.0001723,
      "aop": 69.77,
      "man": 290.3474,
      "mmo": 15.06382374,
      "sma": 6925.40258
   },
   {
      "name": "STARLINK-1664",
      "line1": "1 46553U 20070X   21092.91736786  .00000737  00000-0  68385-4 0  9994",
      "line2": "2 46553  53.0586 315.0727 0002684  82.8953 277.2341 15.06400838 28351",
      "drg": 6.8385,
      "inc": 53.0586,
      "ran": 315.0727,
      "ecc": 0.0002684,
      "aop": 82.8953,
      "man": 277.2341,
      "mmo": 15.06400838,
      "sma": 6925.34599
   },
   {
      "name": "STARLINK-1671",
      "line1": "1 46554U 20070Y   21092.83768655  .00000987  00000-0  85140-4 0  9991",
      "line2": "2 46554  53.0586 330.4381 0001494  78.9412 281.1745 15.06394615 28136",
      "drg": 8.514,
      "inc": 53.0586,
      "ran": 330.4381,
      "ecc": 0.0001494,
      "aop": 78.9412,
      "man": 281.1745,
      "mmo": 15.06394615,
      "sma": 6925.36506
   },
   {
      "name": "STARLINK-1674",
      "line1": "1 46555U 20070Z   21092.84456714  .00000014  00000-0  19846-4 0  9994",
      "line2": "2 46555  53.0573 305.3892 0002107  97.5149 262.6079 15.06388118 28491",
      "drg": 1.9846,
      "inc": 53.0573,
      "ran": 305.3892,
      "ecc": 0.0002107,
      "aop": 97.5149,
      "man": 262.6079,
      "mmo": 15.06388118,
      "sma": 6925.38498
   },
   {
      "name": "STARLINK-1676",
      "line1": "1 46556U 20070AA  21092.76441654 -.00000897  00000-0 -41286-4 0  9997",
      "line2": "2 46556  53.0581 345.7653 0002716  76.4541 283.6750 15.06394497 27914",
      "drg": -4.1286,
      "inc": 53.0581,
      "ran": 345.7653,
      "ecc": 0.0002716,
      "aop": 76.4541,
      "man": 283.675,
      "mmo": 15.06394497,
      "sma": 6925.36542
   },
   {
      "name": "STARLINK-1679",
      "line1": "1 46557U 20070AB  21092.94088294  .00000524  00000-0  54114-4 0  9994",
      "line2": "2 46557  53.0574 329.9750 0002278  79.9340 280.1906 15.06404709 28157",
      "drg": 5.4114,
      "inc": 53.0574,
      "ran": 329.975,
      "ecc": 0.0002278,
      "aop": 79.934,
      "man": 280.1906,
      "mmo": 15.06404709,
      "sma": 6925.33413
   },
   {
      "name": "STARLINK-1680",
      "line1": "1 46558U 20070AC  21092.94825651 -.00000108  00000-0  11665-4 0  9994",
      "line2": "2 46558  53.0584 329.9422 0001854  89.7231 270.3971 15.06394302 28129",
      "drg": 1.1665,
      "inc": 53.0584,
      "ran": 329.9422,
      "ecc": 0.0001854,
      "aop": 89.7231,
      "man": 270.3971,
      "mmo": 15.06394302,
      "sma": 6925.36602
   }
]